{
 "type": "FeatureCollection",
 "features": [
  {
   "type": "Feature",
   "properties": {
    "route_id": "XH_WALK_0001",
    "route_mode": "walk",
    "route_name": "西岸油罐艺术短线",
    "distance_m": 970
   },
   "geometry": {
    "type": "LineString",
    "coordinates": [
     [
      121.466628,
      31.161363
     ],
     [
      121.466541,
      31.162656
     ],
     [
      121.466276,
      31.163503
     ],
     [
      121.465898,
      31.164492
     ],
     [
      121.465738,
      31.164883
     ],
     [
      121.465816,
      31.165104
     ],
     [
      121.465829,
      31.165838
     ],
     [
      121.4652,
      31.166224
     ],
     [
      121.464714,
      31.167231
     ],
     [
      121.464353,
      31.167109
     ],
     [
      121.463125,
      31.166988
     ],
     [
      121.463368,
      31.167799
     ]
    ]
   }
  },
  {
   "type": "Feature",
   "properties": {
    "route_id": "XH_WALK_0002",
    "route_mode": "walk",
    "route_name": "漕宝路桂平路街区单环线",
    "distance_m": 2860
   },
   "geometry": {
    "type": "LineString",
    "coordinates": [
     [
      121.40525,
      31.163013
     ],
     [
      121.409291,
      31.155691
     ],
     [
      121.413866,
      31.156773
     ],
     [
      121.412173,
      31.164308
     ],
     [
      121.40525,
      31.163013
     ]
    ]
   }
  },
  {
   "type": "Feature",
   "properties": {
    "route_id": "XH_RUN_0031",
    "route_mode": "run",
    "route_name": "西岸艺术滨江短线",
    "distance_m": 2557
   },
   "geometry": {
    "type": "LineString",
    "coordinates": [
     [
      121.46464,
      31.183806
     ],
     [
      121.46546,
      31.183194
     ],
     [
      121.464358,
      31.181324
     ],
     [
      121.463715,
      31.18115
     ],
     [
      121.461918,
      31.177391
     ],
     [
      121.461775,
      31.175512
     ],
     [
      121.46204,
      31.173898
     ],
     [
      121.463359,
      31.169701
     ],
     [
      121.463368,
      31.167799
     ],
     [
      121.462791,
      31.165877
     ],
     [
      121.462925,
      31.164609
     ],
     [
      121.464227,
      31.164514
     ]
    ]
   }
  },
  {
   "type": "Feature",
   "properties": {
    "route_id": "XH_BIKE_0061",
    "route_mode": "bike",
    "route_name": "西岸—龙华公共道路短环",
    "distance_m": 5857
   },
   "geometry": {
    "type": "LineString",
    "coordinates": [
     [
      121.456166,
      31.178591
     ],
     [
      121.461133,
      31.183424
     ],
     [
      121.463893,
      31.183416
     ],
     [
      121.463589,
      31.18184
     ],
     [
      121.461341,
      31.177643
     ],
     [
      121.461532,
      31.175434
     ],
     [
      121.46329,
      31.168967
     ],
     [
      121.462517,
      31.16592
     ],
     [
      121.463306,
      31.163505
     ],
     [
      121.459325,
      31.161549
     ],
     [
      121.457999,
      31.170421
     ],
     [
      121.456166,
      31.178591
     ]
    ]
   }
  }
 ]
}
