{
  "type": "FeatureCollection",
  "crs": {
    "type": "name",
    "properties": {
      "name": "urn:ogc:def:crs:OGC:1.3:CRS84"
    }
  },
  "name": "xuhui_boundary",
  "coordinate_reference_system": "CRS84/WGS84 (lon,lat)",
  "features": [
    {
      "type": "Feature",
      "id": "xuhui_district",
      "geometry": {
        "type": "Polygon",
        "coordinates": [
          [
            [
              121.40798,
              31.192987
            ],
            [
              121.408236,
              31.192971
            ],
            [
              121.40861,
              31.192955
            ],
            [
              121.410164,
              31.1929
            ],
            [
              121.410227,
              31.193439
            ],
            [
              121.411312,
              31.193241
            ],
            [
              121.411473,
              31.19427
            ],
            [
              121.412149,
              31.194218
            ],
            [
              121.412114,
              31.193957
            ],
            [
              121.412104,
              31.193814
            ],
            [
              121.411935,
              31.192825
            ],
            [
              121.414468,
              31.192726
            ],
            [
              121.414989,
              31.192752
            ],
            [
              121.415857,
              31.192902
            ],
            [
              121.416436,
              31.193141
            ],
            [
              121.416919,
              31.193517
            ],
            [
              121.417348,
              31.194104
            ],
            [
              121.417477,
              31.194453
            ],
            [
              121.417477,
              31.194896
            ],
            [
              121.417477,
              31.19493
            ],
            [
              121.417395,
              31.195912
            ],
            [
              121.417377,
              31.196032
            ],
            [
              121.417287,
              31.196195
            ],
            [
              121.417068,
              31.196685
            ],
            [
              121.416812,
              31.197439
            ],
            [
              121.417264,
              31.197348
            ],
            [
              121.417828,
              31.197229
            ],
            [
              121.418228,
              31.19784
            ],
            [
              121.418829,
              31.198767
            ],
            [
              121.419269,
              31.19929
            ],
            [
              121.419794,
              31.199629
            ],
            [
              121.422433,
              31.200795
            ],
            [
              121.429085,
              31.20341
            ],
            [
              121.430372,
              31.203993
            ],
            [
              121.43064,
              31.204156
            ],
            [
              121.431403,
              31.204618
            ],
            [
              121.431603,
              31.204748
            ],
            [
              121.433269,
              31.205835
            ],
            [
              121.433267,
              31.205837
            ],
            [
              121.433217,
              31.205979
            ],
            [
              121.433015,
              31.206532
            ],
            [
              121.432805,
              31.207156
            ],
            [
              121.432437,
              31.208182
            ],
            [
              121.43137,
              31.210559
            ],
            [
              121.431089,
              31.211185
            ],
            [
              121.430585,
              31.212962
            ],
            [
              121.430706,
              31.212973
            ],
            [
              121.430878,
              31.21299
            ],
            [
              121.430997,
              31.213006
            ],
            [
              121.431477,
              31.21303
            ],
            [
              121.431757,
              31.213045
            ],
            [
              121.432038,
              31.213088
            ],
            [
              121.432474,
              31.213249
            ],
            [
              121.433214,
              31.213654
            ],
            [
              121.433769,
              31.214069
            ],
            [
              121.434344,
              31.214591
            ],
            [
              121.434599,
              31.215004
            ],
            [
              121.434771,
              31.215758
            ],
            [
              121.43483,
              31.216309
            ],
            [
              121.434908,
              31.216334
            ],
            [
              121.43509,
              31.216383
            ],
            [
              121.439984,
              31.217354
            ],
            [
              121.442581,
              31.217789
            ],
            [
              121.443528,
              31.217976
            ],
            [
              121.443996,
              31.218104
            ],
            [
              121.447455,
              31.219234
            ],
            [
              121.447589,
              31.219295
            ],
            [
              121.447798,
              31.219392
            ],
            [
              121.451269,
              31.221614
            ],
            [
              121.451441,
              31.221672
            ],
            [
              121.451929,
              31.221774
            ],
            [
              121.453145,
              31.222027
            ],
            [
              121.453652,
              31.220435
            ],
            [
              121.454215,
              31.219195
            ],
            [
              121.454628,
              31.218286
            ],
            [
              121.455229,
              31.217042
            ],
            [
              121.456183,
              31.215327
            ],
            [
              121.45621,
              31.215244
            ],
            [
              121.457049,
              31.21215
            ],
            [
              121.457103,
              31.211321
            ],
            [
              121.457358,
              31.208975
            ],
            [
              121.457409,
              31.208441
            ],
            [
              121.457595,
              31.206881
            ],
            [
              121.45761,
              31.206644
            ],
            [
              121.457642,
              31.205499
            ],
            [
              121.457681,
              31.205155
            ],
            [
              121.457728,
              31.204908
            ],
            [
              121.458516,
              31.205077
            ],
            [
              121.459792,
              31.205369
            ],
            [
              121.460352,
              31.205549
            ],
            [
              121.462084,
              31.20639
            ],
            [
              121.46221,
              31.20643
            ],
            [
              121.462246,
              31.206336
            ],
            [
              121.462763,
              31.205309
            ],
            [
              121.463315,
              31.20368
            ],
            [
              121.463456,
              31.203093
            ],
            [
              121.463484,
              31.202877
            ],
            [
              121.463565,
              31.202355
            ],
            [
              121.463766,
              31.201569
            ],
            [
              121.464131,
              31.200495
            ],
            [
              121.464442,
              31.199774
            ],
            [
              121.46474,
              31.199078
            ],
            [
              121.464951,
              31.198642
            ],
            [
              121.465079,
              31.198294
            ],
            [
              121.465247,
              31.197476
            ],
            [
              121.465332,
              31.196595
            ],
            [
              121.465385,
              31.195877
            ],
            [
              121.465542,
              31.194827
            ],
            [
              121.465815,
              31.193084
            ],
            [
              121.466239,
              31.192914
            ],
            [
              121.467236,
              31.192775
            ],
            [
              121.468688,
              31.19255
            ],
            [
              121.469647,
              31.192331
            ],
            [
              121.470965,
              31.191731
            ],
            [
              121.471158,
              31.19152
            ],
            [
              121.471927,
              31.190191
            ],
            [
              121.469552,
              31.18906
            ],
            [
              121.466236,
              31.187352
            ],
            [
              121.464541,
              31.185988
            ],
            [
              121.462819,
              31.18399
            ],
            [
              121.461813,
              31.182806
            ],
            [
              121.461097,
              31.181577
            ],
            [
              121.460656,
              31.179839
            ],
            [
              121.46063,
              31.179021
            ],
            [
              121.460584,
              31.177987
            ],
            [
              121.460666,
              31.176529
            ],
            [
              121.460859,
              31.175596
            ],
            [
              121.461729,
              31.173237
            ],
            [
              121.462883,
              31.170604
            ],
            [
              121.464633,
              31.167069
            ],
            [
              121.465063,
              31.165282
            ],
            [
              121.465365,
              31.163534
            ],
            [
              121.465335,
              31.162813
            ],
            [
              121.465301,
              31.162037
            ],
            [
              121.46444,
              31.1601
            ],
            [
              121.464039,
              31.159561
            ],
            [
              121.462887,
              31.158011
            ],
            [
              121.454346,
              31.150615
            ],
            [
              121.453795,
              31.150094
            ],
            [
              121.453338,
              31.149278
            ],
            [
              121.452523,
              31.147314
            ],
            [
              121.452537,
              31.145291
            ],
            [
              121.453103,
              31.143375
            ],
            [
              121.453739,
              31.141861
            ],
            [
              121.455384,
              31.13895
            ],
            [
              121.456863,
              31.137069
            ],
            [
              121.45866,
              31.135508
            ],
            [
              121.458854,
              31.13533
            ],
            [
              121.46329,
              31.13126
            ],
            [
              121.464258,
              31.130065
            ],
            [
              121.465419,
              31.127308
            ],
            [
              121.465958,
              31.124031
            ],
            [
              121.465765,
              31.122161
            ],
            [
              121.465253,
              31.120564
            ],
            [
              121.464009,
              31.118475
            ],
            [
              121.460713,
              31.114298
            ],
            [
              121.459371,
              31.11135
            ],
            [
              121.458538,
              31.1083
            ],
            [
              121.457946,
              31.105842
            ],
            [
              121.457942,
              31.104161
            ],
            [
              121.4553,
              31.103475
            ],
            [
              121.454534,
              31.103321
            ],
            [
              121.454489,
              31.103189
            ],
            [
              121.45454,
              31.102908
            ],
            [
              121.453891,
              31.102764
            ],
            [
              121.45368,
              31.103389
            ],
            [
              121.451446,
              31.102932
            ],
            [
              121.451506,
              31.102705
            ],
            [
              121.450862,
              31.102562
            ],
            [
              121.450756,
              31.102933
            ],
            [
              121.450289,
              31.102852
            ],
            [
              121.450068,
              31.102814
            ],
            [
              121.449908,
              31.103354
            ],
            [
              121.449446,
              31.1033
            ],
            [
              121.44904,
              31.103259
            ],
            [
              121.447994,
              31.103152
            ],
            [
              121.447668,
              31.104314
            ],
            [
              121.447497,
              31.104306
            ],
            [
              121.447257,
              31.104933
            ],
            [
              121.447513,
              31.105013
            ],
            [
              121.447297,
              31.105632
            ],
            [
              121.447261,
              31.105737
            ],
            [
              121.446834,
              31.105765
            ],
            [
              121.446488,
              31.105689
            ],
            [
              121.446228,
              31.105632
            ],
            [
              121.44598,
              31.105698
            ],
            [
              121.445875,
              31.105904
            ],
            [
              121.446041,
              31.106753
            ],
            [
              121.44585,
              31.106823
            ],
            [
              121.445326,
              31.106628
            ],
            [
              121.444858,
              31.106596
            ],
            [
              121.443675,
              31.106534
            ],
            [
              121.443488,
              31.107738
            ],
            [
              121.441583,
              31.107578
            ],
            [
              121.441457,
              31.107569
            ],
            [
              121.441387,
              31.108323
            ],
            [
              121.441587,
              31.108351
            ],
            [
              121.443084,
              31.108522
            ],
            [
              121.443005,
              31.109174
            ],
            [
              121.444688,
              31.109427
            ],
            [
              121.444802,
              31.109444
            ],
            [
              121.446455,
              31.109639
            ],
            [
              121.446478,
              31.109638
            ],
            [
              121.447141,
              31.109628
            ],
            [
              121.447047,
              31.110327
            ],
            [
              121.447507,
              31.110378
            ],
            [
              121.447428,
              31.111069
            ],
            [
              121.447412,
              31.111204
            ],
            [
              121.447311,
              31.112086
            ],
            [
              121.446598,
              31.112027
            ],
            [
              121.446193,
              31.113301
            ],
            [
              121.446116,
              31.113693
            ],
            [
              121.446051,
              31.113815
            ],
            [
              121.445658,
              31.114563
            ],
            [
              121.446245,
              31.114748
            ],
            [
              121.446133,
              31.11524
            ],
            [
              121.446701,
              31.115378
            ],
            [
              121.446708,
              31.11541
            ],
            [
              121.446914,
              31.116301
            ],
            [
              121.446991,
              31.116636
            ],
            [
              121.446512,
              31.116532
            ],
            [
              121.446156,
              31.117354
            ],
            [
              121.445372,
              31.117312
            ],
            [
              121.441949,
              31.116106
            ],
            [
              121.441319,
              31.117277
            ],
            [
              121.441089,
              31.116773
            ],
            [
              121.440131,
              31.116335
            ],
            [
              121.438812,
              31.115555
            ],
            [
              121.438449,
              31.115448
            ],
            [
              121.437734,
              31.114858
            ],
            [
              121.43684,
              31.114384
            ],
            [
              121.434764,
              31.113959
            ],
            [
              121.434059,
              31.113911
            ],
            [
              121.433552,
              31.113855
            ],
            [
              121.433256,
              31.113721
            ],
            [
              121.433099,
              31.113799
            ],
            [
              121.433062,
              31.113959
            ],
            [
              121.433337,
              31.114115
            ],
            [
              121.43333,
              31.114248
            ],
            [
              121.433212,
              31.114445
            ],
            [
              121.432242,
              31.115304
            ],
            [
              121.431834,
              31.115005
            ],
            [
              121.431657,
              31.114996
            ],
            [
              121.431003,
              31.115405
            ],
            [
              121.432897,
              31.118424
            ],
            [
              121.43424,
              31.120777
            ],
            [
              121.434377,
              31.120963
            ],
            [
              121.431924,
              31.130903
            ],
            [
              121.422035,
              31.129665
            ],
            [
              121.41693,
              31.129031
            ],
            [
              121.41486,
              31.132043
            ],
            [
              121.41406,
              31.13326
            ],
            [
              121.412054,
              31.135703
            ],
            [
              121.411207,
              31.136639
            ],
            [
              121.409912,
              31.138423
            ],
            [
              121.407698,
              31.14186
            ],
            [
              121.407216,
              31.142682
            ],
            [
              121.40537,
              31.146838
            ],
            [
              121.405271,
              31.147061
            ],
            [
              121.404631,
              31.148432
            ],
            [
              121.404181,
              31.149406
            ],
            [
              121.401651,
              31.155425
            ],
            [
              121.400315,
              31.158596
            ],
            [
              121.399325,
              31.16091
            ],
            [
              121.398764,
              31.162256
            ],
            [
              121.398056,
              31.163995
            ],
            [
              121.398036,
              31.164045
            ],
            [
              121.394237,
              31.162629
            ],
            [
              121.393315,
              31.162383
            ],
            [
              121.392697,
              31.162238
            ],
            [
              121.389942,
              31.161485
            ],
            [
              121.389212,
              31.163646
            ],
            [
              121.386885,
              31.170541
            ],
            [
              121.389294,
              31.171304
            ],
            [
              121.389079,
              31.171949
            ],
            [
              121.389286,
              31.171999
            ],
            [
              121.388913,
              31.17318
            ],
            [
              121.388432,
              31.173104
            ],
            [
              121.388063,
              31.174747
            ],
            [
              121.389777,
              31.175093
            ],
            [
              121.389506,
              31.176038
            ],
            [
              121.389868,
              31.176107
            ],
            [
              121.3898,
              31.176378
            ],
            [
              121.390788,
              31.176566
            ],
            [
              121.389875,
              31.179668
            ],
            [
              121.392386,
              31.179773
            ],
            [
              121.394189,
              31.180245
            ],
            [
              121.39391,
              31.181365
            ],
            [
              121.394898,
              31.181969
            ],
            [
              121.39593,
              31.18075
            ],
            [
              121.396973,
              31.18102
            ],
            [
              121.397242,
              31.181099
            ],
            [
              121.40204,
              31.182503
            ],
            [
              121.407627,
              31.184015
            ],
            [
              121.40826,
              31.184159
            ],
            [
              121.408239,
              31.184275
            ],
            [
              121.408014,
              31.185073
            ],
            [
              121.409151,
              31.185091
            ],
            [
              121.40943,
              31.185422
            ],
            [
              121.410449,
              31.185413
            ],
            [
              121.410653,
              31.186395
            ],
            [
              121.410782,
              31.187138
            ],
            [
              121.410878,
              31.187726
            ],
            [
              121.410814,
              31.188341
            ],
            [
              121.410557,
              31.188946
            ],
            [
              121.410455,
              31.189117
            ],
            [
              121.40904,
              31.188682
            ],
            [
              121.408756,
              31.189017
            ],
            [
              121.408255,
              31.189667
            ],
            [
              121.408188,
              31.189819
            ],
            [
              121.407868,
              31.190545
            ],
            [
              121.407835,
              31.191102
            ],
            [
              121.407978,
              31.191883
            ],
            [
              121.408056,
              31.192284
            ],
            [
              121.408064,
              31.192564
            ],
            [
              121.40798,
              31.192987
            ]
          ]
        ]
      },
      "properties": {
        "name_zh": "徐汇区",
        "name_en": "Xuhui District",
        "osm_relation_id": 1278188,
        "admin_level": "6",
        "source": "OpenStreetMap contributors",
        "licence": "ODbL 1.0",
        "ring_vertex_count": 316
      }
    }
  ]
}
